OBJECT_NAME,OBJECT_ID,EPOCH,MEAN_MOTION,ECCENTRICITY,INCLINATION,RA_OF_ASC_NODE,ARG_OF_PERICENTER,MEAN_ANOMALY,EPHEMERIS_TYPE,CLASSIFICATION_TYPE,NORAD_CAT_ID,ELEMENT_SET_NO,REV_AT_EPOCH,BSTAR,MEAN_MOTION_DOT,MEAN_MOTION_DDOT
STARLINK-32908,2025-037H,2026-07-19T11:34:17.574240,14.98335711,.00026041,70.0018,22.1403,265.2555,94.8307,0,U,63084,999,7820,.17142242E-3,.1953E-4,0
STARLINK-32505,2025-037J,2026-07-19T13:52:44.710464,14.98330581,.00025671,70.0008,22.0748,264.6495,95.4371,0,U,63085,999,7830,.91010287E-4,.993E-5,0
STARLINK-32914,2025-037K,2026-07-19T05:15:45.192384,14.98348744,.00023804,70.0012,22.8256,269.8253,90.2633,0,U,63086,999,7830,.40820715E-3,.4783E-4,0
STARLINK-32918,2025-037L,2026-07-18T21:39:08.433216,14.98326449,.00022046,70.0013,23.7309,266.8600,93.2306,0,U,63087,999,7834,.21014947E-3,.2415E-4,0
STARLINK-32912,2025-037M,2026-07-18T22:09:23.991840,14.98333665,.00023949,70.0012,23.4047,262.2371,97.8516,0,U,63088,999,7836,.20608725E-3,.2367E-4,0
STARLINK-32910,2025-037N,2026-07-19T11:46:32.882304,14.98332611,.00027972,70.0019,22.1684,261.0847,98.9995,0,U,63089,999,7834,.16891071E-3,.1923E-4,0
STARLINK-32903,2025-037P,2026-07-19T12:28:20.352864,14.98329681,.00021311,70.0014,21.8774,268.4053,91.6862,0,U,63090,999,7821,-.23768782E-3,-.2928E-4,0
STARLINK-32925,2025-037Q,2026-07-19T06:09:49.380192,14.98336667,.00025607,70.0012,22.5595,259.7701,100.3170,0,U,63091,999,7825,.19990513E-3,.2293E-4,0
STARLINK-32924,2025-037R,2026-07-19T11:10:15.197088,14.98336164,.00023876,70.0013,22.0855,269.4101,90.6785,0,U,63092,999,7834,.22741067E-3,.2622E-4,0
STARLINK-32900,2025-037S,2026-07-18T22:39:12.861504,14.98324386,.0002973,70.0015,23.4741,266.6327,93.4492,0,U,63093,999,7812,-.8415044E-5,-.193E-5,0
STARLINK-32927,2025-037T,2026-07-19T12:10:21.272160,14.98333056,.00033582,70.0021,22.2347,272.3616,87.7159,0,U,63094,999,7829,.15865442E-3,.1801E-4,0
STARLINK-32907,2025-037U,2026-07-19T11:52:20.826336,14.98328383,.00028824,70.0016,22.1832,269.1303,90.9526,0,U,63095,999,7829,.21655471E-3,.2492E-4,0
STARLINK-32911,2025-037V,2026-07-19T12:22:22.753632,14.98334196,.00015057,70.0016,22.2570,269.0327,91.0660,0,U,63096,999,7833,.17625171E-3,.2011E-4,0
STARLINK-32923,2025-037W,2026-07-19T11:04:14.935872,14.98334970,.00024806,70.0013,22.0703,264.8831,95.2045,0,U,63097,999,7834,.21486521E-3,.2472E-4,0
STARLINK-32913,2025-037X,2026-07-19T11:22:16.198176,14.98341511,.00028487,70.0014,22.1063,269.3632,90.7200,0,U,63098,999,7835,.14535276E-3,.1642E-4,0
STARLINK-11629 [DTC],2025-039A,2026-07-19T06:41:21.687072,15.70863942,.00019551,43.0015,163.4355,268.5719,91.4925,0,U,63104,999,8031,.85276304E-3,.110553E-2,0
STARLINK-11624 [DTC],2025-039B,2026-07-19T06:12:16.462368,15.70906424,.00025755,43.0004,164.1684,267.9406,92.1166,0,U,63105,999,8030,.11985896E-2,.156727E-2,0
STARLINK-11584 [DTC],2025-039C,2026-07-19T06:10:57.285408,15.70852012,.00022133,43.0014,164.1602,265.8758,94.1857,0,U,63106,999,8030,.76118045E-3,.9844E-3,0
STARLINK-11627 [DTC],2025-039D,2026-07-19T14:34:27.378912,15.70862829,.00007538,43.0002,161.6041,280.7241,79.3542,0,U,63107,999,8036,.74878565E-3,.96848E-3,0
STARLINK-11632 [DTC],2025-039E,2026-07-19T07:19:35.443776,15.70847759,.00012583,43.0011,163.6481,254.9873,105.0856,0,U,63108,999,8031,.11202224E-2,.145887E-2,0
STARLINK-11625 [DTC],2025-039F,2026-07-19T05:55:40.914048,15.70937608,.0002527,43.0016,164.0735,263.5884,96.4695,0,U,63109,999,8030,.74903891E-3,.97201E-3,0
STARLINK-11601 [DTC],2025-039G,2026-07-19T07:04:18.333696,15.70926732,.00004832,42.9986,163.5598,201.8837,158.2010,0,U,63110,999,8031,.79178271E-3,.102786E-2,0
STARLINK-11630 [DTC],2025-039H,2026-07-19T07:34:53.847264,15.70835392,.00017627,43.0014,163.7339,263.4718,96.5949,0,U,63111,999,8031,.77769913E-3,.100537E-2,0
STARLINK-11590 [DTC],2025-039J,2026-07-19T06:18:36.472032,15.70883367,.00022003,43.0009,164.2019,258.6624,101.3996,0,U,63112,999,8030,.75095229E-3,.97225E-3,0
STARLINK-11598 [DTC],2025-039K,2026-07-19T05:40:22.586592,15.70939254,.0003327,43.0013,163.9862,248.2957,111.7556,0,U,63113,999,8030,.73345083E-3,.95162E-3,0
STARLINK-11600 [DTC],2025-039L,2026-07-19T06:49:00.322464,15.70868836,.00020812,43.0014,163.4742,271.2172,88.8457,0,U,63114,999,8031,.88777684E-3,.1152E-2,0
STARLINK-11597 [DTC],2025-039M,2026-07-19T14:11:31.242912,15.70868204,.0000583,43.0010,161.4728,302.8078,57.2734,0,U,63115,999,8036,.89181041E-3,.115724E-2,0
STARLINK-11591 [DTC],2025-039N,2026-07-19T14:03:51.983712,15.70886259,.00023979,42.9981,161.4289,275.3245,84.7349,0,U,63116,999,8036,.9721503E-3,.12646E-2,0
STARLINK-32955,2025-039P,2026-07-19T09:03:17.709984,15.77652459,.00242046,42.9852,315.1979,0.6219,359.4678,0,U,63117,999,7858,.87753145E-3,.156559E-2,0
STARLINK-32945,2025-039Q,2026-07-19T11:25:11.355168,15.27583164,.00014906,43.0056,348.3607,228.5411,131.5313,0,U,63118,999,7822,.19747066E-3,.5176E-4,0
STARLINK-32941,2025-039R,2026-07-19T02:05:49.663104,15.27581028,.00015172,43.0019,339.3430,273.9167,86.1511,0,U,63119,999,7829,.38011849E-3,.10213E-3,0
STARLINK-32942,2025-039S,2026-07-19T10:00:16.838784,15.27590901,.00014144,43.0004,348.7719,253.1680,106.9016,0,U,63120,999,7821,.23851628E-3,.6309E-4,0
STARLINK-32947,2025-039T,2026-07-19T09:14:01.606848,15.27596082,.00009946,43.0017,348.5364,290.7783,69.2962,0,U,63121,999,7821,.35160147E-3,.943E-4,0
STARLINK-32961,2025-039U,2026-07-19T10:16:56.385696,15.27591240,.00012798,42.9999,348.8657,268.9486,91.1219,0,U,63122,999,7821,.26574862E-3,.706E-4,0
STARLINK-32948,2025-039V,2026-07-18T18:24:16.632288,15.27584375,.00014534,43.0013,352.4981,265.9084,94.1602,0,U,63123,999,7811,.45416098E-3,.12258E-3,0
STARLINK-32957,2025-039W,2026-07-19T02:35:25.086336,15.27585766,.00005541,42.9993,350.7663,266.9636,93.1152,0,U,63124,999,7816,.39491887E-3,.10623E-3,0
STARLINK-11609 [DTC],2025-043A,2026-07-18T22:37:31.615392,15.70894102,.00007329,42.9998,179.6736,155.8744,204.2158,0,U,63132,999,8010,.8204003E-3,.106418E-2,0
STARLINK-11604 [DTC],2025-043B,2026-07-19T08:17:27.784608,15.70838091,.00014569,43.0011,177.5457,260.6410,99.4293,0,U,63133,999,8005,.10729645E-2,.13955E-2,0
STARLINK-11605 [DTC],2025-043C,2026-07-19T07:54:31.906080,15.70938690,.00007249,42.9973,177.4170,245.4842,114.5950,0,U,63134,999,8005,.89871498E-3,.116989E-2,0
STARLINK-11610 [DTC],2025-043D,2026-07-18T22:52:48.697824,15.70859664,.00014849,43.0005,179.7595,286.5088,73.5616,0,U,63135,999,7999,.53384196E-3,.68675E-3,0
STARLINK-11613 [DTC],2025-043E,2026-07-19T05:06:41.776128,15.70855006,.00015473,43.0013,178.2671,244.4146,115.6562,0,U,63136,999,8015,.87846683E-3,.113899E-2,0
STARLINK-11616 [DTC],2025-043F,2026-07-19T08:33:52.660800,15.70844521,.00015513,43.0007,176.7409,255.3231,104.7464,0,U,63137,999,8018,.76158837E-3,.98457E-3,0
STARLINK-11611 [DTC],2025-043G,2026-07-19T08:00:01.999872,15.70846358,.00014921,43.0010,177.0955,277.0042,224.9660,0,U,63138,999,595,-.43069634E-3,-.55361E-3,0
STARLINK-11628 [DTC],2025-043H,2026-07-19T07:31:35.314752,15.70852936,.00017205,43.0014,177.2863,259.5142,100.5532,0,U,63139,999,8017,.80473227E-3,.10417E-2,0
STARLINK-11607 [DTC],2025-043J,2026-07-19T07:08:39.321312,15.70932357,.00013478,43.0016,177.1583,248.6006,111.4718,0,U,63140,999,8017,.90736065E-3,.118103E-2,0
STARLINK-11522 [DTC],2025-043K,2026-07-18T23:38:29.588352,15.70917431,.00015234,43.0006,179.1155,234.2013,125.8713,0,U,63141,999,7994,.96294782E-3,.125399E-2,0
STARLINK-11503 [DTC],2025-043L,2026-07-19T06:53:21.392160,15.70909319,.00027628,42.9994,177.0710,263.3397,96.7156,0,U,63142,999,7999,.12684452E-2,.1661E-2,0
STARLINK-11579 [DTC],2025-043M,2026-07-19T08:32:34.779840,15.70794643,.00017928,43.0021,176.7344,285.8830,74.1840,0,U,63143,999,8006,.3329191E-3,.42407E-3,0
STARLINK-11581 [DTC],2025-043N,2026-07-19T00:01:25.968000,15.70929730,.00016744,43.0008,179.2427,239.3793,120.6910,0,U,63144,999,8012,.1230229E-2,.16111E-2,0
STARLINK-32949,2025-043P,2026-07-19T11:20:54.620160,15.27585765,.00012736,43.0022,352.2672,270.9855,89.0850,0,U,63145,999,7808,.22851374E-3,.6032E-4,0
STARLINK-32952,2025-043Q,2026-07-18T20:31:23.486880,15.27592714,.00016434,43.0004,2.2777,271.4936,88.5727,0,U,63146,999,7797,.40366407E-3,.10867E-3,0
STARLINK-32936,2025-043R,2026-07-19T12:16:40.011744,15.27581782,.00015149,43.0014,358.6230,264.0705,95.9974,0,U,63147,999,7744,.30520383E-3,.8146E-4,0
STARLINK-32937,2025-043S,2026-07-19T10:43:53.821344,15.27589683,.00009188,42.9990,352.0755,271.4235,88.6511,0,U,63148,999,7751,.25786369E-3,.6843E-4,0
STARLINK-32939,2025-043T,2026-07-18T20:21:41.487840,15.27587477,.00012419,42.9997,355.3191,272.1631,87.9078,0,U,63149,999,7742,.33695458E-3,.9024E-4,0
STARLINK-32919,2025-043U,2026-07-18T17:33:43.725312,15.27589806,.00012558,43.0015,356.1641,268.9219,91.1489,0,U,63150,999,7740,.20795334E-3,.5466E-4,0
STARLINK-32876,2025-043V,2026-07-19T10:01:20.954496,15.27582426,.00015558,43.0035,351.8471,271.7606,88.3067,0,U,63151,999,7751,.25422333E-3,.674E-4,0
STARLINK-32915,2025-043W,2026-07-19T12:18:32.003424,15.27555711,.00010938,43.0012,358.5838,230.2660,129.8095,0,U,63152,999,7744,.17497619E-3,.4552E-4,0
STARLINK-11602 [DTC],2025-048A,2026-07-19T09:48:06.648192,15.70849567,.00021947,43.0013,246.2500,269.5165,90.5451,0,U,63183,999,7885,.87933575E-3,.113992E-2,0
STARLINK-11617 [DTC],2025-048B,2026-07-19T12:43:34.999680,15.70873114,.00024705,43.0022,245.4439,291.3149,68.7455,0,U,63184,999,7925,.8192777E-3,.106183E-2,0
STARLINK-11618 [DTC],2025-048C,2026-07-19T04:19:54.576192,15.70893316,.00009537,42.9985,247.1013,236.0254,124.0523,0,U,63185,999,7919,.66654615E-3,.86162E-3,0
STARLINK-11646 [DTC],2025-048D,2026-07-18T12:49:02.477280,15.70947534,.00017218,42.9992,250.8479,23.5497,336.5449,0,U,63186,999,7910,.10279238E-2,.134205E-2,0
STARLINK-11622 [DTC],2025-048E,2026-07-19T12:58:52.349952,15.70853857,.00019659,43.0010,245.5252,252.3759,107.6895,0,U,63187,999,7925,.85681208E-3,.111039E-2,0
